QIANFAN-49              
1 62250U 24232P   25218.93018267  .00000104  00000+0  14230-3 0  9999
2 62250  88.9930  54.1521 0013445 197.0171 163.0532 13.50956574 50588
QIANFAN-50              
1 62251U 24232Q   25218.88100347  .00000064  00000+0  79824-4 0  9991
2 62251  88.9935  54.1583 0015030 199.4796 160.5783 13.50963092 50609
QIANFAN-51              
1 62252U 24232R   25218.93858636  .00000063  00000+0  79749-4 0  9994
2 62252  88.9929  54.1542 0012436 201.8573 158.2049 13.50958602 50606
QIANFAN-52              
1 62253U 24232S   25218.89330443  .00000069  00000+0  87602-4 0  9994
2 62253  88.9925  54.0372 0014679 194.9497 165.1222 13.50959812 50683
QIANFAN-53              
1 62254U 24232T   25218.94685197  .00000060  00000+0  75133-4 0  9997
2 62254  88.9932  54.1268 0013534 195.3496 164.7246 13.50953418 50654
QIANFAN-54              
1 62255U 24232U   25218.91383830  .00000055  00000+0  65973-4 0  9999
2 62255  88.9923  53.8196 0000830 174.2936 185.8225 13.50952298 82157
QIANFAN-55              
1 62785U 25016A   25218.86577741  .00000130  00000+0  18270-3 0  9999
2 62785  88.9844 116.4023 0018101   4.8103 355.3219 13.50964623 29924
QIANFAN-56              
1 62786U 25016B   25218.95633185  .00000126  00000+0  17692-3 0  9997
2 62786  88.9816 116.2642 0016833   7.3913 352.7483 13.50956330 29982
